IRIDIUM 36 [-]          
1 24967U 97056C   23305.87941040  .00000822  00000+0  27385-3 0  9990
2 24967  86.3975  62.0869 0002224  96.0221 264.1230 14.36481941367015
IRIDIUM 39 [-]          
1 25042U 97069D   23305.91877512  .00001153  00000+0  30787-3 0  9994
2 25042  86.3874 105.2296 0020155 122.3865 237.9292 14.47455031363095
IRIDIUM 38 [-]          
1 25043U 97069E   23305.88961661  .00000685  00000+0  22481-3 0  9991
2 25043  86.3924 122.5923 0000291 184.6081 175.5114 14.36938727360724
IRIDIUM 42 [-]          
1 25077U 97077A   23305.95149707  .00000598  00000+0  20226-3 0  9992
2 25077  86.3934 128.0135 0001431  94.0509 266.0851 14.35249755356076
IRIDIUM 44 [-]          
1 25078U 97077B   23305.89145217  .00000756  00000+0  23847-3 0  9996
2 25078  86.3914 111.5539 0002852 131.4194 228.7250 14.39044112358348
IRIDIUM 45 [-]          
1 25104U 97082A   23305.80623742  .00013463  00000+0  86203-3 0  9991
2 25104  86.3745 328.8923 0177222 346.9027  12.7628 14.96301113362639
IRIDIUM 24 [-]          
1 25105U 97082B   23305.77381516  .00000689  00000+0  20924-3 0  9992
2 25105  86.3904 331.5967 0009786 229.4051 130.6298 14.40803216357982
IRIDIUM 51 [-]          
1 25262U 98018A   23305.82782323  .00014189  00000+0  78505-3 0  9991
2 25262  86.3920 339.3623 0161289 300.3499  58.1868 15.03207364357025
